{
  "type": "FeatureCollection",
  "features": [
    {
      "type": "Feature",
      "properties": {
        "norad_id": 30646,
        "name": "FENGYUN 1C DEB",
        "group": "fengyun-1c-debris",
        "lat": -32.08350638008131,
        "lon": 26.760434986745544,
        "alt_km": 834.791998318904,
        "timestamp": "2025-12-27T07:26:25.499537+00:00",
        "meta_object_name": "FENGYUN 1C DEB",
        "meta_object_id": "1999-025APD",
        "meta_epoch": "2025-12-26T21:22:19.661376",
        "meta_mean_motion": 14.09685882,
        "meta_eccentricity": 0.00475417,
        "meta_inclination": 98.6513,
        "meta_ra_of_asc_node": 20.8804,
        "meta_arg_of_pericenter": 351.9532,
        "meta_mean_anomaly": 8.0871,
        "meta_ephemeris_type": 0,
        "meta_classification_type": "U",
        "meta_norad_cat_id": 30646,
        "meta_element_set_no": 999,
        "meta_rev_at_epoch": 96804,
        "meta_bstar": 0.00069993063,
        "meta_mean_motion_dot": 1.198e-05,
        "meta_mean_motion_ddot": 0,
        "tle_line1": "1 30646U 99025APD 25360.89050534  .00001198  00000+0  69993-3 0  9991",
        "tle_line2": "2 30646  98.6513  20.8804 0047541 351.9532   8.0871 14.09685882968046"
      },
      "geometry": {
        "type": "Point",
        "coordinates": [
          26.760434986745544,
          -32.08350638008131
        ]
      }
    },
    {
      "type": "Feature",
      "properties": {
        "norad_id": 30647,
        "name": "FENGYUN 1C DEB",
        "group": "fengyun-1c-debris",
        "lat": 5.709039454080333,
        "lon": -66.42069498001607,
        "alt_km": 717.3754096809744,
        "timestamp": "2025-12-27T07:26:25.499547+00:00",
        "meta_object_name": "FENGYUN 1C DEB",
        "meta_object_id": "1999-025APE",
        "meta_epoch": "2025-12-26T18:29:42.229824",
        "meta_mean_motion": 14.56733309,
        "meta_eccentricity": 0.00302537,
        "meta_inclination": 98.99,
        "meta_ra_of_asc_node": 293.9048,
        "meta_arg_of_pericenter": 130.1072,
        "meta_mean_anomaly": 289.0185,
        "meta_ephemeris_type": 0,
        "meta_classification_type": "U",
        "meta_norad_cat_id": 30647,
        "meta_element_set_no": 999,
        "meta_rev_at_epoch": 98193,
        "meta_bstar": 0.0023538663,
        "meta_mean_motion_dot": 0.00010549,
        "meta_mean_motion_ddot": 0,
        "tle_line1": "1 30647U 99025APE 25360.77062766  .00010549  00000+0  23539-2 0  9994",
        "tle_line2": "2 30647  98.9900 293.9048 0030253 130.1072 289.0185 14.56733309981933"
      },
      "geometry": {
        "type": "Point",
        "coordinates": [
          -66.42069498001607,
          5.709039454080333
        ]
      }
    },
    {
      "type": "Feature",
      "properties": {
        "norad_id": 30648,
        "name": "FENGYUN 1C DEB",
        "group": "fengyun-1c-debris",
        "lat": 72.09291361350387,
        "lon": 68.221858131693,
        "alt_km": 700.7886320928492,
        "timestamp": "2025-12-27T07:26:25.499557+00:00",
        "meta_object_name": "FENGYUN 1C DEB",
        "meta_object_id": "1999-025APF",
        "meta_epoch": "2025-12-26T18:31:49.929888",
        "meta_mean_motion": 14.48323113,
        "meta_eccentricity": 0.00333489,
        "meta_inclination": 98.64,
        "meta_ra_of_asc_node": 95.7423,
        "meta_arg_of_pericenter": 85.9508,
        "meta_mean_anomaly": 65.369,
        "meta_ephemeris_type": 0,
        "meta_classification_type": "U",
        "meta_norad_cat_id": 30648,
        "meta_element_set_no": 999,
        "meta_rev_at_epoch": 98069,
        "meta_bstar": 0.0020229608,
        "meta_mean_motion_dot": 7.577e-05,
        "meta_mean_motion_ddot": 0,
        "tle_line1": "1 30648U 99025APF 25360.77210567  .00007577  00000+0  20230-2 0  9991",
        "tle_line2": "2 30648  98.6400  95.7423 0033348  85.9508  65.3690 14.48323113980697"
      },
      "geometry": {
        "type": "Point",
        "coordinates": [
          68.221858131693,
          72.09291361350387
        ]
      }
    },
    {
      "type": "Feature",
      "properties": {
        "norad_id": 30649,
        "name": "FENGYUN 1C DEB",
        "group": "fengyun-1c-debris",
        "lat": -30.61352240366714,
        "lon": 102.0463769274651,
        "alt_km": 833.2545641510305,
        "timestamp": "2025-12-27T07:26:25.499568+00:00",
        "meta_object_name": "FENGYUN 1C DEB",
        "meta_object_id": "1999-025APG",
        "meta_epoch": "2025-12-25T05:29:52.058400",
        "meta_mean_motion": 14.2963623,
        "meta_eccentricity": 0.0050854,
        "meta_inclination": 98.8086,
        "meta_ra_of_asc_node": 94.6781,
        "meta_arg_of_pericenter": 136.0066,
        "meta_mean_anomaly": 289.3041,
        "meta_ephemeris_type": 0,
        "meta_classification_type": "U",
        "meta_norad_cat_id": 30649,
        "meta_element_set_no": 999,
        "meta_rev_at_epoch": 97242,
        "meta_bstar": 0.0017878,
        "meta_mean_motion_dot": 4.601e-05,
        "meta_mean_motion_ddot": 0,
        "tle_line1": "1 30649U 99025APG 25359.22907475  .00004601  00000+0  17878-2 0  9990",
        "tle_line2": "2 30649  98.8086  94.6781 0050854 136.0066 289.3041 14.29636230972429"
      },
      "geometry": {
        "type": "Point",
        "coordinates": [
          102.0463769274651,
          -30.61352240366714
        ]
      }
    },
    {
      "type": "Feature",
      "properties": {
        "norad_id": 30650,
        "name": "FENGYUN 1C DEB",
        "group": "fengyun-1c-debris",
        "lat": -49.593965919679185,
        "lon": -148.65255923462112,
        "alt_km": 843.9600767270113,
        "timestamp": "2025-12-27T07:26:25.499578+00:00",
        "meta_object_name": "FENGYUN 1C DEB",
        "meta_object_id": "1999-025APH",
        "meta_epoch": "2025-12-26T14:06:00.660096",
        "meta_mean_motion": 14.14010577,
        "meta_eccentricity": 0.0072241,
        "meta_inclination": 99.2036,
        "meta_ra_of_asc_node": 41.5836,
        "meta_arg_of_pericenter": 151.4266,
        "meta_mean_anomaly": 2.2906,
        "meta_ephemeris_type": 0,
        "meta_classification_type": "U",
        "meta_norad_cat_id": 30650,
        "meta_element_set_no": 999,
        "meta_rev_at_epoch": 96494,
        "meta_bstar": 0.0015229,
        "meta_mean_motion_dot": 2.921e-05,
        "meta_mean_motion_ddot": 0,
        "tle_line1": "1 30650U 99025APH 25360.58750764  .00002921  00000+0  15229-2 0  9991",
        "tle_line2": "2 30650  99.2036  41.5836 0072241 151.4266   2.2906 14.14010577964944"
      },
      "geometry": {
        "type": "Point",
        "coordinates": [
          -148.65255923462112,
          -49.593965919679185
        ]
      }
    },
    {
      "type": "Feature",
      "properties": {
        "norad_id": 30652,
        "name": "FENGYUN 1C DEB",
        "group": "fengyun-1c-debris",
        "lat": -31.162425155316303,
        "lon": 39.41080117459553,
        "alt_km": 874.6207036594733,
        "timestamp": "2025-12-27T07:26:25.499588+00:00",
        "meta_object_name": "FENGYUN 1C DEB",
        "meta_object_id": "1999-025APJ",
        "meta_epoch": "2025-12-26T23:24:21.303648",
        "meta_mean_motion": 14.07810009,
        "meta_eccentricity": 0.00077171,
        "meta_inclination": 98.7838,
        "meta_ra_of_asc_node": 33.7202,
        "meta_arg_of_pericenter": 220.7533,
        "meta_mean_anomaly": 211.9785,
        "meta_ephemeris_type": 0,
        "meta_classification_type": "U",
        "meta_norad_cat_id": 30652,
        "meta_element_set_no": 999,
        "meta_rev_at_epoch": 96894,
        "meta_bstar": 0.00018515274,
        "meta_mean_motion_dot": 2.71e-06,
        "meta_mean_motion_ddot": 0,
        "tle_line1": "1 30652U 99025APJ 25360.97524657  .00000271  00000+0  18515-3 0  9994",
        "tle_line2": "2 30652  98.7838  33.7202 0007717 220.7533 211.9785 14.07810009968941"
      },
      "geometry": {
        "type": "Point",
        "coordinates": [
          39.41080117459553,
          -31.162425155316303
        ]
      }
    },
    {
      "type": "Feature",
      "properties": {
        "norad_id": 30654,
        "name": "FENGYUN 1C DEB",
        "group": "fengyun-1c-debris",
        "lat": 73.35657786028038,
        "lon": 138.12276157621045,
        "alt_km": 810.3099871425366,
        "timestamp": "2025-12-27T07:26:25.499598+00:00",
        "meta_object_name": "FENGYUN 1C DEB",
        "meta_object_id": "1999-025APL",
        "meta_epoch": "2025-12-26T17:23:57.840864",
        "meta_mean_motion": 14.17157972,
        "meta_eccentricity": 0.00359608,
        "meta_inclination": 99.2427,
        "meta_ra_of_asc_node": 284.5105,
        "meta_arg_of_pericenter": 58.0548,
        "meta_mean_anomaly": 302.4114,
        "meta_ephemeris_type": 0,
        "meta_classification_type": "U",
        "meta_norad_cat_id": 30654,
        "meta_element_set_no": 999,
        "meta_rev_at_epoch": 96878,
        "meta_bstar": 0.0011685761,
        "meta_mean_motion_dot": 2.323e-05,
        "meta_mean_motion_ddot": 0,
        "tle_line1": "1 30654U 99025APL 25360.72497501  .00002323  00000+0  11686-2 0  9997",
        "tle_line2": "2 30654  99.2427 284.5105 0035960  58.0548 302.4114 14.17157972968788"
      },
      "geometry": {
        "type": "Point",
        "coordinates": [
          138.12276157621045,
          73.35657786028038
        ]
      }
    }
  ]
}